CCSDS_OMM_VERS = 2.0
CREATION_DATE  = 
ORIGINATOR     = 

OBJECT_NAME    = QPS-SAR-14 (YACHIHOKO-I)
OBJECT_ID      = 2025-252A
CENTER_NAME    = EARTH
REF_FRAME      = TEME
TIME_SYSTEM    = UTC
MEAN_ELEMENT_THEORY = SGP/SGP4

EPOCH          = 2025-12-04T15:59:51.959904
MEAN_MOTION    = 14.97574412
ECCENTRICITY   = .0006845
INCLINATION    = 42.0036
RA_OF_ASC_NODE = 119.6506
ARG_OF_PERICENTER = 95.5659
MEAN_ANOMALY   = 264.5947

EPHEMERIS_TYPE = 0
CLASSIFICATION_TYPE = U
NORAD_CAT_ID   = 66316
ELEMENT_SET_NO = 999
REV_AT_EPOCH   = 432
BSTAR          = .11222E-2
MEAN_MOTION_DOT = .13169E-3
MEAN_MOTION_DDOT = 0

CCSDS_OMM_VERS = 2.0
CREATION_DATE  = 
ORIGINATOR     = 

OBJECT_NAME    = ELECTRON R/B
OBJECT_ID      = 2025-252B
CENTER_NAME    = EARTH
REF_FRAME      = TEME
TIME_SYSTEM    = UTC
MEAN_ELEMENT_THEORY = SGP/SGP4

EPOCH          = 2025-12-04T16:09:30.337920
MEAN_MOTION    = 16.20073041
ECCENTRICITY   = .0062086
INCLINATION    = 41.9852
RA_OF_ASC_NODE = 99.2617
ARG_OF_PERICENTER = 80.1195
MEAN_ANOMALY   = 280.6676

EPHEMERIS_TYPE = 0
CLASSIFICATION_TYPE = U
NORAD_CAT_ID   = 66317
ELEMENT_SET_NO = 999
REV_AT_EPOCH   = 455
BSTAR          = .15417E-2
MEAN_MOTION_DOT = .4861387E-1
MEAN_MOTION_DDOT = .83152E-5

CCSDS_OMM_VERS = 2.0
CREATION_DATE  = 
ORIGINATOR     = 

OBJECT_NAME    = STARLINK-35442
OBJECT_ID      = 2025-253A
CENTER_NAME    = EARTH
REF_FRAME      = TEME
TIME_SYSTEM    = UTC
MEAN_ELEMENT_THEORY = SGP/SGP4

EPOCH          = 2025-12-04T11:12:12.627648
MEAN_MOTION    = 15.40680264
ECCENTRICITY   = .0001636
INCLINATION    = 43.0027
RA_OF_ASC_NODE = 33.5509
ARG_OF_PERICENTER = 271.7121
MEAN_ANOMALY   = 88.3548

EPHEMERIS_TYPE = 0
CLASSIFICATION_TYPE = U
NORAD_CAT_ID   = 66319
ELEMENT_SET_NO = 999
REV_AT_EPOCH   = 564
BSTAR          = .2125E-2
MEAN_MOTION_DOT = .8945E-3
MEAN_MOTION_DDOT = 0

CCSDS_OMM_VERS = 2.0
CREATION_DATE  = 
ORIGINATOR     = 

OBJECT_NAME    = STARLINK-34616
OBJECT_ID      = 2025-253B
CENTER_NAME    = EARTH
REF_FRAME      = TEME
TIME_SYSTEM    = UTC
MEAN_ELEMENT_THEORY = SGP/SGP4

EPOCH          = 2025-12-04T18:00:02.000160
MEAN_MOTION    = 15.44091342
ECCENTRICITY   = .0001165
INCLINATION    = 43.0006
RA_OF_ASC_NODE = 31.5087
ARG_OF_PERICENTER = 271.3128
MEAN_ANOMALY   = 31.0064

EPHEMERIS_TYPE = 0
CLASSIFICATION_TYPE = U
NORAD_CAT_ID   = 66320
ELEMENT_SET_NO = 999
REV_AT_EPOCH   = 584
BSTAR          = -.49091E-1
MEAN_MOTION_DOT = -.2043192E-1
MEAN_MOTION_DDOT = 0

CCSDS_OMM_VERS = 2.0
CREATION_DATE  = 
ORIGINATOR     = 

OBJECT_NAME    = STARLINK-34615
OBJECT_ID      = 2025-253C
CENTER_NAME    = EARTH
REF_FRAME      = TEME
TIME_SYSTEM    = UTC
MEAN_ELEMENT_THEORY = SGP/SGP4

EPOCH          = 2025-12-04T18:00:02.000160
MEAN_MOTION    = 15.50645357
ECCENTRICITY   = .0001665
INCLINATION    = 43.0003
RA_OF_ASC_NODE = 30.6633
ARG_OF_PERICENTER = 280.7282
MEAN_ANOMALY   = 6.7619

EPHEMERIS_TYPE = 0
CLASSIFICATION_TYPE = U
NORAD_CAT_ID   = 66321
ELEMENT_SET_NO = 999
REV_AT_EPOCH   = 569
BSTAR          = -.22769E-2
MEAN_MOTION_DOT = -.132002E-2
MEAN_MOTION_DDOT = 0

CCSDS_OMM_VERS = 2.0
CREATION_DATE  = 
ORIGINATOR     = 

OBJECT_NAME    = STARLINK-35292
OBJECT_ID      = 2025-253D
CENTER_NAME    = EARTH
REF_FRAME      = TEME
TIME_SYSTEM    = UTC
MEAN_ELEMENT_THEORY = SGP/SGP4

EPOCH          = 2025-12-04T14:00:01.000224
MEAN_MOTION    = 15.40702534
ECCENTRICITY   = .00016414
INCLINATION    = 43.0007
RA_OF_ASC_NODE = 32.7895
ARG_OF_PERICENTER = 269.5668
MEAN_ANOMALY   = 55.0705

EPHEMERIS_TYPE = 0
CLASSIFICATION_TYPE = U
NORAD_CAT_ID   = 66322
ELEMENT_SET_NO = 999
REV_AT_EPOCH   = 561
BSTAR          = -.36875485E-2
MEAN_MOTION_DOT = -.151343E-2
MEAN_MOTION_DDOT = 0

CCSDS_OMM_VERS = 2.0
CREATION_DATE  = 
ORIGINATOR     = 

OBJECT_NAME    = STARLINK-35309
OBJECT_ID      = 2025-253E
CENTER_NAME    = EARTH
REF_FRAME      = TEME
TIME_SYSTEM    = UTC
MEAN_ELEMENT_THEORY = SGP/SGP4

EPOCH          = 2025-12-04T11:55:34.293216
MEAN_MOTION    = 15.50737349
ECCENTRICITY   = .0003796
INCLINATION    = 43.0008
RA_OF_ASC_NODE = 32.9093
ARG_OF_PERICENTER = 268.5168
MEAN_ANOMALY   = 91.5257

EPHEMERIS_TYPE = 0
CLASSIFICATION_TYPE = U
NORAD_CAT_ID   = 66323
ELEMENT_SET_NO = 999
REV_AT_EPOCH   = 565
BSTAR          = .30261E-2
MEAN_MOTION_DOT = .182433E-2
MEAN_MOTION_DDOT = 0

CCSDS_OMM_VERS = 2.0
CREATION_DATE  = 
ORIGINATOR     = 

OBJECT_NAME    = STARLINK-35506
OBJECT_ID      = 2025-253F
CENTER_NAME    = EARTH
REF_FRAME      = TEME
TIME_SYSTEM    = UTC
MEAN_ELEMENT_THEORY = SGP/SGP4

EPOCH          = 2025-12-03T12:46:12.432576
MEAN_MOTION    = 15.50590090
ECCENTRICITY   = .00008705
INCLINATION    = 43.0006
RA_OF_ASC_NODE = 38.5692
ARG_OF_PERICENTER = 276.2742
MEAN_ANOMALY   = 83.8019

EPHEMERIS_TYPE = 0
CLASSIFICATION_TYPE = U
NORAD_CAT_ID   = 66324
ELEMENT_SET_NO = 999
REV_AT_EPOCH   = 550
BSTAR          = .45167229E-3
MEAN_MOTION_DOT = .26255E-3
MEAN_MOTION_DDOT = 0

CCSDS_OMM_VERS = 2.0
CREATION_DATE  = 
ORIGINATOR     = 

OBJECT_NAME    = STARLINK-35504
OBJECT_ID      = 2025-253G
CENTER_NAME    = EARTH
REF_FRAME      = TEME
TIME_SYSTEM    = UTC
MEAN_ELEMENT_THEORY = SGP/SGP4

EPOCH          = 2025-12-04T18:00:02.000160
MEAN_MOTION    = 15.40732360
ECCENTRICITY   = .0000999
INCLINATION    = 43.0005
RA_OF_ASC_NODE = 31.6162
ARG_OF_PERICENTER = 265.7105
MEAN_ANOMALY   = 351.4810

EPHEMERIS_TYPE = 0
CLASSIFICATION_TYPE = U
NORAD_CAT_ID   = 66325
ELEMENT_SET_NO = 999
REV_AT_EPOCH   = 564
BSTAR          = -.2355E-2
MEAN_MOTION_DOT = -.97532E-3
MEAN_MOTION_DDOT = 0

CCSDS_OMM_VERS = 2.0
CREATION_DATE  = 
ORIGINATOR     = 

OBJECT_NAME    = STARLINK-35479
OBJECT_ID      = 2025-253H
CENTER_NAME    = EARTH
REF_FRAME      = TEME
TIME_SYSTEM    = UTC
MEAN_ELEMENT_THEORY = SGP/SGP4

EPOCH          = 2025-12-04T15:00:38.013408
MEAN_MOTION    = 15.50615042
ECCENTRICITY   = .0001415
INCLINATION    = 43.0005
RA_OF_ASC_NODE = 32.1514
ARG_OF_PERICENTER = 287.7439
MEAN_ANOMALY   = 72.3267

EPHEMERIS_TYPE = 0
CLASSIFICATION_TYPE = U
NORAD_CAT_ID   = 66326
ELEMENT_SET_NO = 999
REV_AT_EPOCH   = 567
BSTAR          = .1591E-2
MEAN_MOTION_DOT = .94247E-3
MEAN_MOTION_DDOT = 0

CCSDS_OMM_VERS = 2.0
CREATION_DATE  = 
ORIGINATOR     = 

OBJECT_NAME    = STARLINK-35507
OBJECT_ID      = 2025-253J
CENTER_NAME    = EARTH
REF_FRAME      = TEME
TIME_SYSTEM    = UTC
MEAN_ELEMENT_THEORY = SGP/SGP4

EPOCH          = 2025-12-04T16:00:01.998720
MEAN_MOTION    = 15.50531081
ECCENTRICITY   = .0001637
INCLINATION    = 43.0007
RA_OF_ASC_NODE = 31.9419
ARG_OF_PERICENTER = 282.8728
MEAN_ANOMALY   = 296.3455

EPHEMERIS_TYPE = 0
CLASSIFICATION_TYPE = U
NORAD_CAT_ID   = 66327
ELEMENT_SET_NO = 999
REV_AT_EPOCH   = 572
BSTAR          = .75641E-3
MEAN_MOTION_DOT = .44208E-3
MEAN_MOTION_DDOT = 0

